STARLINK-1656_new
1 16353C 20062AF  21326.12081935 -.00014047  00000-0 -94104-3 0  3267
2 16353  53.0528 218.2028 0001950  75.7544  22.1288 15.06417234    13
STARLINK-1656_old
1 26353C 20062AF  21325.12691063  .00007614  00000-0  51028-3 0  3252
2 26353  53.0538 222.6586 0001972  75.8098  29.0786 15.06383284    17
